{
  "type": "FeatureCollection",
  "features": [
    {
      "type": "Feature",
      "properties": {
        "norad_id": 30505,
        "name": "FENGYUN 1C DEB",
        "group": "fengyun-1c-debris",
        "lat": -50.57060591319433,
        "lon": -110.65190655288241,
        "alt_km": 784.1468955338023,
        "timestamp": "2025-12-26T12:57:39.549641+00:00",
        "meta_object_name": "FENGYUN 1C DEB",
        "meta_object_id": "1999-025AHT",
        "meta_epoch": "2025-12-26T05:14:58.736832",
        "meta_mean_motion": 14.22131094,
        "meta_eccentricity": 0.00643907,
        "meta_inclination": 98.9249,
        "meta_ra_of_asc_node": 80.0404,
        "meta_arg_of_pericenter": 203.9639,
        "meta_mean_anomaly": 182.9834,
        "meta_ephemeris_type": 0,
        "meta_classification_type": "U",
        "meta_norad_cat_id": 30505,
        "meta_element_set_no": 999,
        "meta_rev_at_epoch": 97115,
        "meta_bstar": 0.0017157918,
        "meta_mean_motion_dot": 3.838e-05,
        "meta_mean_motion_ddot": 0,
        "tle_line1": "1 30505U 99025AHT 25360.21873538  .00003838  00000+0  17158-2 0  9996",
        "tle_line2": "2 30505  98.9249  80.0404 0064390 203.9639 182.9834 14.22131094971151"
      },
      "geometry": {
        "type": "Point",
        "coordinates": [
          -110.65190655288241,
          -50.57060591319433
        ]
      }
    },
    {
      "type": "Feature",
      "properties": {
        "norad_id": 30506,
        "name": "FENGYUN 1C DEB",
        "group": "fengyun-1c-debris",
        "lat": -45.9402902723468,
        "lon": 14.381522245312585,
        "alt_km": 820.2810268748208,
        "timestamp": "2025-12-26T12:57:39.549651+00:00",
        "meta_object_name": "FENGYUN 1C DEB",
        "meta_object_id": "1999-025AHU",
        "meta_epoch": "2025-12-26T06:59:37.512096",
        "meta_mean_motion": 14.08665668,
        "meta_eccentricity": 0.00697662,
        "meta_inclination": 98.7571,
        "meta_ra_of_asc_node": 4.9748,
        "meta_arg_of_pericenter": 309.4482,
        "meta_mean_anomaly": 183.7558,
        "meta_ephemeris_type": 0,
        "meta_classification_type": "U",
        "meta_norad_cat_id": 30506,
        "meta_element_set_no": 999,
        "meta_rev_at_epoch": 97012,
        "meta_bstar": 0.00026304943,
        "meta_mean_motion_dot": 4.2e-06,
        "meta_mean_motion_ddot": 0,
        "tle_line1": "1 30506U 99025AHU 25360.29140639  .00000420  00000+0  26305-3 0  9993",
        "tle_line2": "2 30506  98.7571   4.9748 0069766 309.4482 183.7558 14.08665668970125"
      },
      "geometry": {
        "type": "Point",
        "coordinates": [
          14.381522245312585,
          -45.9402902723468
        ]
      }
    },
    {
      "type": "Feature",
      "properties": {
        "norad_id": 30507,
        "name": "FENGYUN 1C DEB",
        "group": "fengyun-1c-debris",
        "lat": -62.17360430212823,
        "lon": 82.62201197353832,
        "alt_km": 941.7727580652327,
        "timestamp": "2025-12-26T12:57:39.549661+00:00",
        "meta_object_name": "FENGYUN 1C DEB",
        "meta_object_id": "1999-025AHV",
        "meta_epoch": "2025-12-26T03:12:59.832576",
        "meta_mean_motion": 14.13234243,
        "meta_eccentricity": 0.01283446,
        "meta_inclination": 99.0124,
        "meta_ra_of_asc_node": 64.7148,
        "meta_arg_of_pericenter": 138.8565,
        "meta_mean_anomaly": 252.5831,
        "meta_ephemeris_type": 0,
        "meta_classification_type": "U",
        "meta_norad_cat_id": 30507,
        "meta_element_set_no": 999,
        "meta_rev_at_epoch": 96687,
        "meta_bstar": 0.0010446454,
        "meta_mean_motion_dot": 2.072e-05,
        "meta_mean_motion_ddot": 0,
        "tle_line1": "1 30507U 99025AHV 25360.13402584  .00002072  00000+0  10446-2 0  9990",
        "tle_line2": "2 30507  99.0124  64.7148 0128344 138.8565 252.5831 14.13234243966879"
      },
      "geometry": {
        "type": "Point",
        "coordinates": [
          82.62201197353832,
          -62.17360430212823
        ]
      }
    },
    {
      "type": "Feature",
      "properties": {
        "norad_id": 30509,
        "name": "FENGYUN 1C DEB",
        "group": "fengyun-1c-debris",
        "lat": -14.937225702308352,
        "lon": 49.248381943562634,
        "alt_km": 944.9071880713873,
        "timestamp": "2025-12-26T12:57:39.549671+00:00",
        "meta_object_name": "FENGYUN 1C DEB",
        "meta_object_id": "1999-025AHX",
        "meta_epoch": "2025-12-24T02:45:50.090976",
        "meta_mean_motion": 14.07725961,
        "meta_eccentricity": 0.01024574,
        "meta_inclination": 98.4648,
        "meta_ra_of_asc_node": 229.2516,
        "meta_arg_of_pericenter": 31.4768,
        "meta_mean_anomaly": 121.2979,
        "meta_ephemeris_type": 0,
        "meta_classification_type": "U",
        "meta_norad_cat_id": 30509,
        "meta_element_set_no": 999,
        "meta_rev_at_epoch": 95882,
        "meta_bstar": 0.0022392549,
        "meta_mean_motion_dot": 3.936e-05,
        "meta_mean_motion_ddot": 0,
        "tle_line1": "1 30509U 99025AHX 25358.11516309  .00003936  00000+0  22393-2 0  9992",
        "tle_line2": "2 30509  98.4648 229.2516 0102457  31.4768 121.2979 14.07725961958828"
      },
      "geometry": {
        "type": "Point",
        "coordinates": [
          49.248381943562634,
          -14.937225702308352
        ]
      }
    },
    {
      "type": "Feature",
      "properties": {
        "norad_id": 30510,
        "name": "FENGYUN 1C DEB",
        "group": "fengyun-1c-debris",
        "lat": 35.909509162135066,
        "lon": -160.21649106093236,
        "alt_km": 792.0961122736335,
        "timestamp": "2025-12-26T12:57:39.549681+00:00",
        "meta_object_name": "FENGYUN 1C DEB",
        "meta_object_id": "1999-025AHY",
        "meta_epoch": "2025-12-26T00:39:48.159936",
        "meta_mean_motion": 14.12914045,
        "meta_eccentricity": 0.00786352,
        "meta_inclination": 99.2448,
        "meta_ra_of_asc_node": 12.4815,
        "meta_arg_of_pericenter": 129.227,
        "meta_mean_anomaly": 289.0977,
        "meta_ephemeris_type": 0,
        "meta_classification_type": "U",
        "meta_norad_cat_id": 30510,
        "meta_element_set_no": 999,
        "meta_rev_at_epoch": 96762,
        "meta_bstar": 0.0012407162,
        "meta_mean_motion_dot": 2.333e-05,
        "meta_mean_motion_ddot": 0,
        "tle_line1": "1 30510U 99025AHY 25360.02764074  .00002333  00000+0  12407-2 0  9996",
        "tle_line2": "2 30510  99.2448  12.4815 0078635 129.2270 289.0977 14.12914045967623"
      },
      "geometry": {
        "type": "Point",
        "coordinates": [
          -160.21649106093236,
          35.909509162135066
        ]
      }
    },
    {
      "type": "Feature",
      "properties": {
        "norad_id": 30514,
        "name": "FENGYUN 1C DEB",
        "group": "fengyun-1c-debris",
        "lat": -80.87206129549746,
        "lon": 90.77819431744521,
        "alt_km": 878.5125380305317,
        "timestamp": "2025-12-26T12:57:39.549691+00:00",
        "meta_object_name": "FENGYUN 1C DEB",
        "meta_object_id": "1999-025AJC",
        "meta_epoch": "2025-12-25T23:58:18.817824",
        "meta_mean_motion": 14.34397458,
        "meta_eccentricity": 0.01741105,
        "meta_inclination": 98.412,
        "meta_ra_of_asc_node": 23.1823,
        "meta_arg_of_pericenter": 54.8606,
        "meta_mean_anomaly": 306.8756,
        "meta_ephemeris_type": 0,
        "meta_classification_type": "U",
        "meta_norad_cat_id": 30514,
        "meta_element_set_no": 999,
        "meta_rev_at_epoch": 98415,
        "meta_bstar": 0.00048676491,
        "meta_mean_motion_dot": 1.578e-05,
        "meta_mean_motion_ddot": 0,
        "tle_line1": "1 30514U 99025AJC 25359.99882891  .00001578  00000+0  48676-3 0  9990",
        "tle_line2": "2 30514  98.4120  23.1823 0174110  54.8606 306.8756 14.34397458984151"
      },
      "geometry": {
        "type": "Point",
        "coordinates": [
          90.77819431744521,
          -80.87206129549746
        ]
      }
    },
    {
      "type": "Feature",
      "properties": {
        "norad_id": 30515,
        "name": "FENGYUN 1C DEB",
        "group": "fengyun-1c-debris",
        "lat": -7.487018642447949,
        "lon": 53.908770710091694,
        "alt_km": 1336.9664983933017,
        "timestamp": "2025-12-26T12:57:39.549701+00:00",
        "meta_object_name": "FENGYUN 1C DEB",
        "meta_object_id": "1999-025AJD",
        "meta_epoch": "2025-12-26T03:58:51.054816",
        "meta_mean_motion": 13.6383703,
        "meta_eccentricity": 0.04969485,
        "meta_inclination": 98.509,
        "meta_ra_of_asc_node": 234.707,
        "meta_arg_of_pericenter": 39.1141,
        "meta_mean_anomaly": 109.2184,
        "meta_ephemeris_type": 0,
        "meta_classification_type": "U",
        "meta_norad_cat_id": 30515,
        "meta_element_set_no": 999,
        "meta_rev_at_epoch": 93513,
        "meta_bstar": 0.00095724758,
        "meta_mean_motion_dot": 1.729e-05,
        "meta_mean_motion_ddot": 0,
        "tle_line1": "1 30515U 99025AJD 25360.16586869  .00001729  00000+0  95725-3 0  9993",
        "tle_line2": "2 30515  98.5090 234.7070 0496948  39.1141 109.2184 13.63837030935139"
      },
      "geometry": {
        "type": "Point",
        "coordinates": [
          53.908770710091694,
          -7.487018642447949
        ]
      }
    }
  ]
}